{
  "type": "FeatureCollection",
  "features": [
    {
      "type": "Feature",
      "properties": {
        "norad_id": 44334,
        "name": "EUTELSAT 7C",
        "group": "eutelsat",
        "lat": -0.0467834538639523,
        "lon": 69.4096016047205,
        "alt_km": 35799.77341008356,
        "timestamp": "2025-12-12T22:42:12.221541+00:00",
        "meta_object_name": "EUTELSAT 7C",
        "meta_object_id": "2019-034B",
        "meta_epoch": "2025-12-12T03:14:30.886080",
        "meta_mean_motion": 1.00271596,
        "meta_eccentricity": 0.00032509,
        "meta_inclination": 0.072,
        "meta_ra_of_asc_node": 178.1084,
        "meta_arg_of_pericenter": 65.7254,
        "meta_mean_anomaly": 252.8645,
        "meta_ephemeris_type": 0,
        "meta_classification_type": "U",
        "meta_norad_cat_id": 44334,
        "meta_element_set_no": 999,
        "meta_rev_at_epoch": 496,
        "meta_bstar": 0,
        "meta_mean_motion_dot": 5.8e-07,
        "meta_mean_motion_ddot": 0,
        "tle_line1": "1 44334U 19034B   25346.13507970  .00000058  00000+0  00000+0 0  9998",
        "tle_line2": "2 44334   0.0720 178.1084 0003250  65.7254 252.8645  1.00271596  4969"
      },
      "geometry": {
        "type": "Point",
        "coordinates": [
          69.4096016047205,
          -0.0467834538639523
        ]
      }
    },
    {
      "type": "Feature",
      "properties": {
        "norad_id": 44624,
        "name": "EUTELSAT 5 WEST B",
        "group": "eutelsat",
        "lat": 0.07671907578492045,
        "lon": 57.44448800017639,
        "alt_km": 35799.01374984532,
        "timestamp": "2025-12-12T22:42:12.221557+00:00",
        "meta_object_name": "EUTELSAT 5 WEST B",
        "meta_object_id": "2019-067A",
        "meta_epoch": "2025-12-12T04:53:45.485088",
        "meta_mean_motion": 1.00271802,
        "meta_eccentricity": 0.00033658,
        "meta_inclination": 0.0624,
        "meta_ra_of_asc_node": 348.0818,
        "meta_arg_of_pericenter": 273.8757,
        "meta_mean_anomaly": 247.6347,
        "meta_ephemeris_type": 0,
        "meta_classification_type": "U",
        "meta_norad_cat_id": 44624,
        "meta_element_set_no": 999,
        "meta_rev_at_epoch": 2256,
        "meta_bstar": 0,
        "meta_mean_motion_dot": -3.3e-07,
        "meta_mean_motion_ddot": 0,
        "tle_line1": "1 44624U 19067A   25346.20399867 -.00000033  00000+0  00000+0 0  9992",
        "tle_line2": "2 44624   0.0624 348.0818 0003365 273.8757 247.6347  1.00271802 22561"
      },
      "geometry": {
        "type": "Point",
        "coordinates": [
          57.44448800017639,
          0.07671907578492045
        ]
      }
    },
    {
      "type": "Feature",
      "properties": {
        "norad_id": 45027,
        "name": "EUTELSAT KONNECT",
        "group": "eutelsat",
        "lat": -0.010411775763408432,
        "lon": 69.62517765512887,
        "alt_km": 35791.87520248805,
        "timestamp": "2025-12-12T22:42:12.221574+00:00",
        "meta_object_name": "EUTELSAT KONNECT",
        "meta_object_id": "2020-005B",
        "meta_epoch": "2025-12-12T01:31:48.222912",
        "meta_mean_motion": 1.00270011,
        "meta_eccentricity": 0.00015956,
        "meta_inclination": 0.0715,
        "meta_ra_of_asc_node": 96.0285,
        "meta_arg_of_pericenter": 191.0796,
        "meta_mean_anomaly": 184.048,
        "meta_ephemeris_type": 0,
        "meta_classification_type": "U",
        "meta_norad_cat_id": 45027,
        "meta_element_set_no": 999,
        "meta_rev_at_epoch": 2246,
        "meta_bstar": 0,
        "meta_mean_motion_dot": 5.8e-07,
        "meta_mean_motion_ddot": 0,
        "tle_line1": "1 45027U 20005B   25346.06375258  .00000058  00000+0  00000+0 0  9992",
        "tle_line2": "2 45027   0.0715  96.0285 0001595 191.0796 184.0480  1.00270011 22467"
      },
      "geometry": {
        "type": "Point",
        "coordinates": [
          69.62517765512887,
          -0.010411775763408432
        ]
      }
    },
    {
      "type": "Feature",
      "properties": {
        "norad_id": 49056,
        "name": "EUTELSAT QUANTUM",
        "group": "eutelsat",
        "lat": 0.030914889133278885,
        "lon": 110.11962973603804,
        "alt_km": 35800.61810578293,
        "timestamp": "2025-12-12T22:42:12.221589+00:00",
        "meta_object_name": "EUTELSAT QUANTUM",
        "meta_object_id": "2021-069B",
        "meta_epoch": "2025-12-12T04:58:38.646336",
        "meta_mean_motion": 1.00272439,
        "meta_eccentricity": 0.00036458,
        "meta_inclination": 0.021,
        "meta_ra_of_asc_node": 35.8102,
        "meta_arg_of_pericenter": 238.2566,
        "meta_mean_anomaly": 289.4509,
        "meta_ephemeris_type": 0,
        "meta_classification_type": "U",
        "meta_norad_cat_id": 49056,
        "meta_element_set_no": 999,
        "meta_rev_at_epoch": 1605,
        "meta_bstar": 0,
        "meta_mean_motion_dot": 1.35e-06,
        "meta_mean_motion_ddot": 0,
        "tle_line1": "1 49056U 21069B   25346.20739174  .00000135  00000+0  00000+0 0  9992",
        "tle_line2": "2 49056   0.0210  35.8102 0003645 238.2566 289.4509  1.00272439 16055"
      },
      "geometry": {
        "type": "Point",
        "coordinates": [
          110.11962973603804,
          0.030914889133278885
        ]
      }
    },
    {
      "type": "Feature",
      "properties": {
        "norad_id": 53765,
        "name": "EUTELSAT KONNECT VHTS",
        "group": "eutelsat",
        "lat": -0.015378362829488443,
        "lon": 65.14786847166559,
        "alt_km": 35796.5587993449,
        "timestamp": "2025-12-12T22:42:12.221602+00:00",
        "meta_object_name": "EUTELSAT KONNECT VHTS",
        "meta_object_id": "2022-110A",
        "meta_epoch": "2025-12-12T03:13:16.004928",
        "meta_mean_motion": 1.00271767,
        "meta_eccentricity": 0.00024923,
        "meta_inclination": 0.0639,
        "meta_ra_of_asc_node": 101.3299,
        "meta_arg_of_pericenter": 139.4387,
        "meta_mean_anomaly": 251.3532,
        "meta_ephemeris_type": 0,
        "meta_classification_type": "U",
        "meta_norad_cat_id": 53765,
        "meta_element_set_no": 999,
        "meta_rev_at_epoch": 495,
        "meta_bstar": 0,
        "meta_mean_motion_dot": 2.7e-07,
        "meta_mean_motion_ddot": 0,
        "tle_line1": "1 53765U 22110A   25346.13421302  .00000027  00000+0  00000+0 0  9995",
        "tle_line2": "2 53765   0.0639 101.3299 0002492 139.4387 251.3532  1.00271767  4953"
      },
      "geometry": {
        "type": "Point",
        "coordinates": [
          65.14786847166559,
          -0.015378362829488443
        ]
      }
    },
    {
      "type": "Feature",
      "properties": {
        "norad_id": 54048,
        "name": "EUTELSAT HOTBIRD 13F",
        "group": "eutelsat",
        "lat": 0.044201109662074974,
        "lon": 75.45169666752702,
        "alt_km": 35784.62024376402,
        "timestamp": "2025-12-12T22:42:12.221613+00:00",
        "meta_object_name": "EUTELSAT HOTBIRD 13F",
        "meta_object_id": "2022-134A",
        "meta_epoch": "2025-12-11T23:36:58.233312",
        "meta_mean_motion": 1.00269374,
        "meta_eccentricity": 0.0002241,
        "meta_inclination": 0.048,
        "meta_ra_of_asc_node": 293.1086,
        "meta_arg_of_pericenter": 64.7327,
        "meta_mean_anomaly": 90.3432,
        "meta_ephemeris_type": 0,
        "meta_classification_type": "U",
        "meta_norad_cat_id": 54048,
        "meta_element_set_no": 999,
        "meta_rev_at_epoch": 1150,
        "meta_bstar": 0,
        "meta_mean_motion_dot": 9.6e-07,
        "meta_mean_motion_ddot": 0,
        "tle_line1": "1 54048U 22134A   25345.98400733  .00000096  00000+0  00000+0 0  9999",
        "tle_line2": "2 54048   0.0480 293.1086 0002241  64.7327  90.3432  1.00269374 11502"
      },
      "geometry": {
        "type": "Point",
        "coordinates": [
          75.45169666752702,
          0.044201109662074974
        ]
      }
    },
    {
      "type": "Feature",
      "properties": {
        "norad_id": 54225,
        "name": "EUTELSAT HOTBIRD 13G",
        "group": "eutelsat",
        "lat": 0.0029525619956976036,
        "lon": 75.39690027697505,
        "alt_km": 35788.35446160977,
        "timestamp": "2025-12-12T22:42:12.221626+00:00",
        "meta_object_name": "EUTELSAT HOTBIRD 13G",
        "meta_object_id": "2022-146A",
        "meta_epoch": "2025-12-12T06:41:35.159424",
        "meta_mean_motion": 1.00271187,
        "meta_eccentricity": 0.00018164,
        "meta_inclination": 0.0478,
        "meta_ra_of_asc_node": 233.9518,
        "meta_arg_of_pericenter": 307.8257,
        "meta_mean_anomaly": 12.835,
        "meta_ephemeris_type": 0,
        "meta_classification_type": "U",
        "meta_norad_cat_id": 54225,
        "meta_element_set_no": 999,
        "meta_rev_at_epoch": 559,
        "meta_bstar": 0,
        "meta_mean_motion_dot": 9.7e-07,
        "meta_mean_motion_ddot": 0,
        "tle_line1": "1 54225U 22146A   25346.27887916  .00000097  00000+0  00000+0 0  9995",
        "tle_line2": "2 54225   0.0478 233.9518 0001816 307.8257  12.8350  1.00271187  5593"
      },
      "geometry": {
        "type": "Point",
        "coordinates": [
          75.39690027697505,
          0.0029525619956976036
        ]
      }
    }
  ]
}